[{"OBJECT_NAME":"STARLINK-4377","OBJECT_ID":"2022-084AJ","EPOCH":"2026-03-05T03:10:09.545952","MEAN_MOTION":15.01261099,"ECCENTRICITY":0.0002,"INCLINATION":97.6031,"RA_OF_ASC_NODE":125.7371,"ARG_OF_PERICENTER":141.0311,"MEAN_ANOMALY":219.1058,"EPHEMERIS_TYPE":0,"CLASSIFICATION_TYPE":"U","NORAD_CAT_ID":53221,"ELEMENT_SET_NO":999,"REV_AT_EPOCH":19863,"BSTAR":5.2017e-5,"MEAN_MOTION_DOT":6.1e-6,"MEAN_MOTION_DDOT":0},{"OBJECT_NAME":"STARLINK-4356","OBJECT_ID":"2022-084AM","EPOCH":"2026-03-05T03:15:29.669184","MEAN_MOTION":15.0125851,"ECCENTRICITY":0.0003423,"INCLINATION":97.6028,"RA_OF_ASC_NODE":125.7409,"ARG_OF_PERICENTER":155.7015,"MEAN_ANOMALY":204.4371,"EPHEMERIS_TYPE":0,"CLASSIFICATION_TYPE":"U","NORAD_CAT_ID":53224,"ELEMENT_SET_NO":999,"REV_AT_EPOCH":19863,"BSTAR":-2.3369e-5,"MEAN_MOTION_DOT":-3.59e-6,"MEAN_MOTION_DDOT":0},{"OBJECT_NAME":"STARLINK-4358","OBJECT_ID":"2022-084AN","EPOCH":"2026-03-05T02:46:33.572640","MEAN_MOTION":15.0564887,"ECCENTRICITY":9.15e-5,"INCLINATION":97.6027,"RA_OF_ASC_NODE":126.6636,"ARG_OF_PERICENTER":151.6702,"MEAN_ANOMALY":208.4575,"EPHEMERIS_TYPE":0,"CLASSIFICATION_TYPE":"U","NORAD_CAT_ID":53225,"ELEMENT_SET_NO":999,"REV_AT_EPOCH":19869,"BSTAR":3.0744e-5,"MEAN_MOTION_DOT":3.83e-6,"MEAN_MOTION_DDOT":0},{"OBJECT_NAME":"STARLINK-4359","OBJECT_ID":"2022-084AP","EPOCH":"2026-03-05T02:59:30.598944","MEAN_MOTION":15.01250023,"ECCENTRICITY":8.3e-5,"INCLINATION":97.6043,"RA_OF_ASC_NODE":125.7467,"ARG_OF_PERICENTER":190.9752,"MEAN_ANOMALY":169.1454,"EPHEMERIS_TYPE":0,"CLASSIFICATION_TYPE":"U","NORAD_CAT_ID":53226,"ELEMENT_SET_NO":999,"REV_AT_EPOCH":19863,"BSTAR":-4.1476e-5,"MEAN_MOTION_DOT":-5.91e-6,"MEAN_MOTION_DDOT":0},{"OBJECT_NAME":"STARLINK-4366","OBJECT_ID":"2022-084AQ","EPOCH":"2026-03-05T03:54:20.473344","MEAN_MOTION":15.05641164,"ECCENTRICITY":0.0001692,"INCLINATION":97.6031,"RA_OF_ASC_NODE":126.7298,"ARG_OF_PERICENTER":89.3157,"MEAN_ANOMALY":270.8263,"EPHEMERIS_TYPE":0,"CLASSIFICATION_TYPE":"U","NORAD_CAT_ID":53227,"ELEMENT_SET_NO":999,"REV_AT_EPOCH":19870,"BSTAR":0.00010965,"MEAN_MOTION_DOT":1.521e-5,"MEAN_MOTION_DDOT":0},{"OBJECT_NAME":"STARLINK-4365","OBJECT_ID":"2022-084AR","EPOCH":"2026-03-05T03:04:49.427040","MEAN_MOTION":15.01266549,"ECCENTRICITY":5.37e-5,"INCLINATION":97.6034,"RA_OF_ASC_NODE":125.7346,"ARG_OF_PERICENTER":169.0056,"MEAN_ANOMALY":191.118,"EPHEMERIS_TYPE":0,"CLASSIFICATION_TYPE":"U","NORAD_CAT_ID":53228,"ELEMENT_SET_NO":999,"REV_AT_EPOCH":19863,"BSTAR":-4.335e-5,"MEAN_MOTION_DOT":-6.15e-6,"MEAN_MOTION_DDOT":0},{"OBJECT_NAME":"STARLINK-4367","OBJECT_ID":"2022-084AS","EPOCH":"2026-03-05T04:02:19.707360","MEAN_MOTION":15.05646808,"ECCENTRICITY":0.0001092,"INCLINATION":97.603,"RA_OF_ASC_NODE":126.7389,"ARG_OF_PERICENTER":96.0853,"MEAN_ANOMALY":264.0498,"EPHEMERIS_TYPE":0,"CLASSIFICATION_TYPE":"U","NORAD_CAT_ID":53229,"ELEMENT_SET_NO":999,"REV_AT_EPOCH":19870,"BSTAR":2.8403e-5,"MEAN_MOTION_DOT":3.49e-6,"MEAN_MOTION_DDOT":0},{"OBJECT_NAME":"STARLINK-4364","OBJECT_ID":"2022-084AT","EPOCH":"2026-03-05T03:30:26.157312","MEAN_MOTION":15.05645347,"ECCENTRICITY":9.09e-5,"INCLINATION":97.6022,"RA_OF_ASC_NODE":126.7714,"ARG_OF_PERICENTER":89.3152,"MEAN_ANOMALY":270.8179,"EPHEMERIS_TYPE":0,"CLASSIFICATION_TYPE":"U","NORAD_CAT_ID":53230,"ELEMENT_SET_NO":999,"REV_AT_EPOCH":19870,"BSTAR":-1.918e-5,"MEAN_MOTION_DOT":-3.37e-6,"MEAN_MOTION_DDOT":0},{"OBJECT_NAME":"STARLINK-4370","OBJECT_ID":"2022-084AU","EPOCH":"2026-03-05T03:46:24.475008","MEAN_MOTION":15.05633849,"ECCENTRICITY":5.45e-5,"INCLINATION":97.6059,"RA_OF_ASC_NODE":126.7489,"ARG_OF_PERICENTER":85.4979,"MEAN_ANOMALY":274.631,"EPHEMERIS_TYPE":0,"CLASSIFICATION_TYPE":"U","NORAD_CAT_ID":53231,"ELEMENT_SET_NO":999,"REV_AT_EPOCH":19870,"BSTAR":-3.9704e-5,"MEAN_MOTION_DOT":-6.33e-6,"MEAN_MOTION_DDOT":0},{"OBJECT_NAME":"STARLINK-4371","OBJECT_ID":"2022-084AV","EPOCH":"2026-03-05T02:54:09.787104","MEAN_MOTION":15.01259624,"ECCENTRICITY":0.000108,"INCLINATION":97.6056,"RA_OF_ASC_NODE":125.7331,"ARG_OF_PERICENTER":161.6079,"MEAN_ANOMALY":198.5184,"EPHEMERIS_TYPE":0,"CLASSIFICATION_TYPE":"U","NORAD_CAT_ID":53232,"ELEMENT_SET_NO":999,"REV_AT_EPOCH":19863,"BSTAR":3.7823e-5,"MEAN_MOTION_DOT":4.28e-6,"MEAN_MOTION_DDOT":0},{"OBJECT_NAME":"STARLINK-4372","OBJECT_ID":"2022-084AW","EPOCH":"2026-03-05T02:46:30.531360","MEAN_MOTION":15.0126708,"ECCENTRICITY":0.0001602,"INCLINATION":97.6033,"RA_OF_ASC_NODE":125.7384,"ARG_OF_PERICENTER":106.9081,"MEAN_ANOMALY":253.2319,"EPHEMERIS_TYPE":0,"CLASSIFICATION_TYPE":"U","NORAD_CAT_ID":53233,"ELEMENT_SET_NO":999,"REV_AT_EPOCH":19863,"BSTAR":9.873e-5,"MEAN_MOTION_DOT":1.21e-5,"MEAN_MOTION_DDOT":0},{"OBJECT_NAME":"STARLINK-4368","OBJECT_ID":"2022-084AX","EPOCH":"2026-03-05T02:48:49.715712","MEAN_MOTION":15.0126185,"ECCENTRICITY":7.47e-5,"INCLINATION":97.6044,"RA_OF_ASC_NODE":125.7313,"ARG_OF_PERICENTER":131.2738,"MEAN_ANOMALY":228.855,"EPHEMERIS_TYPE":0,"CLASSIFICATION_TYPE":"U","NORAD_CAT_ID":53234,"ELEMENT_SET_NO":999,"REV_AT_EPOCH":19964,"BSTAR":5.8341e-5,"MEAN_MOTION_DOT":6.91e-6,"MEAN_MOTION_DDOT":0},{"OBJECT_NAME":"STARLINK-4056","OBJECT_ID":"2022-086A","EPOCH":"2026-03-04T19:14:42.414720","MEAN_MOTION":15.08837831,"ECCENTRICITY":0.0001476,"INCLINATION":53.2171,"RA_OF_ASC_NODE":221.0545,"ARG_OF_PERICENTER":92.9365,"MEAN_ANOMALY":267.1796,"EPHEMERIS_TYPE":0,"CLASSIFICATION_TYPE":"U","NORAD_CAT_ID":53242,"ELEMENT_SET_NO":999,"REV_AT_EPOCH":20057,"BSTAR":5.8226e-5,"MEAN_MOTION_DOT":6.39e-6,"MEAN_MOTION_DDOT":0},{"OBJECT_NAME":"STARLINK-4047","OBJECT_ID":"2022-086B","EPOCH":"2026-03-04T10:37:20.206272","MEAN_MOTION":15.08824012,"ECCENTRICITY":0.00014852,"INCLINATION":53.2162,"RA_OF_ASC_NODE":227.3674,"ARG_OF_PERICENTER":76.1292,"MEAN_ANOMALY":283.9865,"EPHEMERIS_TYPE":0,"CLASSIFICATION_TYPE":"U","NORAD_CAT_ID":53243,"ELEMENT_SET_NO":999,"REV_AT_EPOCH":20047,"BSTAR":0.00029731202,"MEAN_MOTION_DOT":4.445e-5,"MEAN_MOTION_DDOT":0},{"OBJECT_NAME":"STARLINK-4125","OBJECT_ID":"2022-086C","EPOCH":"2026-03-04T20:46:46.498080","MEAN_MOTION":15.08848092,"ECCENTRICITY":0.0001223,"INCLINATION":53.2165,"RA_OF_ASC_NODE":225.854,"ARG_OF_PERICENTER":87.4104,"MEAN_ANOMALY":272.7028,"EPHEMERIS_TYPE":0,"CLASSIFICATION_TYPE":"U","NORAD_CAT_ID":53244,"ELEMENT_SET_NO":999,"REV_AT_EPOCH":20051,"BSTAR":9.6418e-5,"MEAN_MOTION_DOT":1.247e-5,"MEAN_MOTION_DDOT":0},{"OBJECT_NAME":"STARLINK-4131","OBJECT_ID":"2022-086E","EPOCH":"2026-03-04T20:41:29.315040","MEAN_MOTION":15.08833456,"ECCENTRICITY":0.0001305,"INCLINATION":53.2163,"RA_OF_ASC_NODE":225.7944,"ARG_OF_PERICENTER":84.1907,"MEAN_ANOMALY":275.9234,"EPHEMERIS_TYPE":0,"CLASSIFICATION_TYPE":"U","NORAD_CAT_ID":53246,"ELEMENT_SET_NO":999,"REV_AT_EPOCH":19940,"BSTAR":1.2123e-5,"MEAN_MOTION_DOT":-9.5e-7,"MEAN_MOTION_DDOT":0},{"OBJECT_NAME":"STARLINK-4061","OBJECT_ID":"2022-086F","EPOCH":"2026-03-05T03:32:52.452384","MEAN_MOTION":15.08829358,"ECCENTRICITY":0.0001331,"INCLINATION":53.2169,"RA_OF_ASC_NODE":219.6922,"ARG_OF_PERICENTER":87.346,"MEAN_ANOMALY":272.7685,"EPHEMERIS_TYPE":0,"CLASSIFICATION_TYPE":"U","NORAD_CAT_ID":53247,"ELEMENT_SET_NO":999,"REV_AT_EPOCH":20062,"BSTAR":0.0001718,"MEAN_MOTION_DOT":2.447e-5,"MEAN_MOTION_DDOT":0}]
