STARLINK-4377           
1 53221U 22084AJ  26064.13205493  .00000610  00000+0  52017-4 0  9999
2 53221  97.6031 125.7371 0002000 141.0311 219.1058 15.01261099198637
STARLINK-4356           
1 53224U 22084AM  26064.13576006 -.00000359  00000+0 -23369-4 0  9993
2 53224  97.6028 125.7409 0003423 155.7015 204.4371 15.01258510198630
STARLINK-4358           
1 53225U 22084AN  26064.11566635  .00000383  00000+0  30744-4 0  9999
2 53225  97.6027 126.6636 0000915 151.6702 208.4575 15.05648870198695
STARLINK-4359           
1 53226U 22084AP  26064.12465971 -.00000591  00000+0 -41476-4 0  9999
2 53226  97.6043 125.7467 0000830 190.9752 169.1454 15.01250023198631
STARLINK-4366           
1 53227U 22084AQ  26064.16273696  .00001521  00000+0  10965-3 0  9995
2 53227  97.6031 126.7298 0001692  89.3157 270.8263 15.05641164198709
STARLINK-4365           
1 53228U 22084AR  26064.12834985 -.00000615  00000+0 -43350-4 0  9996
2 53228  97.6034 125.7346 0000537 169.0056 191.1180 15.01266549198638
STARLINK-4367           
1 53229U 22084AS  26064.16828365  .00000349  00000+0  28403-4 0  9990
2 53229  97.6030 126.7389 0001092  96.0853 264.0498 15.05646808198708
STARLINK-4364           
1 53230U 22084AT  26064.14613608 -.00000337  00000+0 -19180-4 0  9993
2 53230  97.6022 126.7714 0000909  89.3152 270.8179 15.05645347198704
STARLINK-4370           
1 53231U 22084AU  26064.15722772 -.00000633  00000+0 -39704-4 0  9991
2 53231  97.6059 126.7489 0000545  85.4979 274.6310 15.05633849198707
STARLINK-4371           
1 53232U 22084AV  26064.12094661  .00000428  00000+0  37823-4 0  9998
2 53232  97.6056 125.7331 0001080 161.6079 198.5184 15.01259624198639
STARLINK-4372           
1 53233U 22084AW  26064.11563115  .00001210  00000+0  98730-4 0  9997
2 53233  97.6033 125.7384 0001602 106.9081 253.2319 15.01267080198632
STARLINK-4368           
1 53234U 22084AX  26064.11724208  .00000691  00000+0  58341-4 0  9996
2 53234  97.6044 125.7313 0000747 131.2738 228.8550 15.01261850199642
STARLINK-4056           
1 53242U 22086A   26063.80187980  .00000639  00000+0  58226-4 0  9996
2 53242  53.2171 221.0545 0001476  92.9365 267.1796 15.08837831200574
STARLINK-4047           
1 53243U 22086B   26063.44259498  .00004445  00000+0  29731-3 0  9998
2 53243  53.2162 227.3674 0001485  76.1292 283.9865 15.08824012200479
STARLINK-4125           
1 53244U 22086C   26063.86581595  .00001247  00000+0  96418-4 0  9995
2 53244  53.2165 225.8540 0001223  87.4104 272.7028 15.08848092200511
STARLINK-4131           
1 53246U 22086E   26063.86214485 -.00000095  00000+0  12123-4 0  9990
2 53246  53.2163 225.7944 0001305  84.1907 275.9234 15.08833456199401
STARLINK-4061           
1 53247U 22086F   26064.14782931  .00002447  00000+0  17180-3 0  9998
2 53247  53.2169 219.6922 0001331  87.3460 272.7685 15.08829358200622
